start=new Date('2021-09-01T00:00:00.000Z').valueOf();
sats=[{"RCS_SIZE":"LARGE","PERIOD":"95.591","NORAD_CAT_ID":"48406","SITE":"AFETR","REV_AT_EPOCH":"359","BSTAR":"-0.00038587000000","MEAN_MOTION":"15.06410869","SEMIMAJOR_AXIS":"6925.315","MEAN_MOTION_DDOT":"0.0000000000000","TIME_SYSTEM":"UTC","CLASSIFICATION_TYPE":"U","OBJECT_ID":"2021-038BF","CENTER_NAME":"EARTH","DECAY_DATE":null,"OBJECT_TYPE":"PAYLOAD","OBJECT_NAME":"STARLINK-2568","TLE_LINE2":"2 48406  53.0538 192.2123 0002189  68.2299 120.4538 15.06410869  3594","PERIAPSIS":"545.664","EPOCH":"2021-08-31T22:00:01.999584","TLE_LINE1":"1 48406U 21038BF  21243.91668981 -.00006027  00000-0 -38587-3 0  9997","LAUNCH_DATE":"2021-05-04","ELEMENT_SET_NO":"999","RA_OF_ASC_NODE":"192.2123","EPHEMERIS_TYPE":"0","COUNTRY_CODE":"US","FILE":"3106454","MEAN_ANOMALY":"120.4538","MEAN_MOTION_DOT":"-0.00006027","INCLINATION":"53.0538","REF_FRAME":"TEME","ARG_OF_PERICENTER":"68.2299","MEAN_ELEMENT_THEORY":"SGP4","ECCENTRICITY":"0.00021890","APOAPSIS":"548.696","GP_ID":"183843110"},{"TLE_LINE2":"2 48407  53.0462 192.2588 0002103  75.6795 132.8012 15.06402155  3644","EPOCH":"2021-08-31T22:00:01.999584","PERIAPSIS":"545.751","ELEMENT_SET_NO":"999","LAUNCH_DATE":"2021-05-04","TLE_LINE1":"1 48407U 21038BG  21243.91668981 -.00006904  00000-0 -44498-3 0  9990","OBJECT_TYPE":"PAYLOAD","DECAY_DATE":null,"OBJECT_NAME":"STARLINK-2595","REF_FRAME":"TEME","INCLINATION":"53.0462","ARG_OF_PERICENTER":"75.6795","MEAN_ELEMENT_THEORY":"SGP4","APOAPSIS":"548.663","ECCENTRICITY":"0.00021030","GP_ID":"183843616","RA_OF_ASC_NODE":"192.2588","EPHEMERIS_TYPE":"0","COUNTRY_CODE":"US","FILE":"3106454","MEAN_ANOMALY":"132.8012","MEAN_MOTION_DOT":"-0.00006904","BSTAR":"-0.00044498000000","SEMIMAJOR_AXIS":"6925.342","MEAN_MOTION":"15.06402155","TIME_SYSTEM":"UTC","MEAN_MOTION_DDOT":"0.0000000000000","PERIOD":"95.592","RCS_SIZE":"LARGE","NORAD_CAT_ID":"48407","SITE":"AFETR","REV_AT_EPOCH":"364","CENTER_NAME":"EARTH","OBJECT_ID":"2021-038BG","CLASSIFICATION_TYPE":"U"},{"TLE_LINE2":"2 48408  53.0513 192.2242 0001979  67.6833 160.9294 15.06395313  3644","EPOCH":"2021-08-31T22:00:01.999584","PERIAPSIS":"545.857","LAUNCH_DATE":"2021-05-04","ELEMENT_SET_NO":"999","TLE_LINE1":"1 48408U 21038BH  21243.91668981 -.00006015  00000-0 -38526-3 0  9999","OBJECT_TYPE":"PAYLOAD","DECAY_DATE":null,"OBJECT_NAME":"STARLINK-2592","REF_FRAME":"TEME","INCLINATION":"53.0513","ARG_OF_PERICENTER":"67.6833","MEAN_ELEMENT_THEORY":"SGP4","APOAPSIS":"548.598","ECCENTRICITY":"0.00019790","GP_ID":"183843204","RA_OF_ASC_NODE":"192.2242","EPHEMERIS_TYPE":"0","COUNTRY_CODE":"US","FILE":"3106454","MEAN_MOTION_DOT":"-0.00006015","MEAN_ANOMALY":"160.9294","BSTAR":"-0.00038526000000","SEMIMAJOR_AXIS":"6925.363","MEAN_MOTION":"15.06395313","TIME_SYSTEM":"UTC","MEAN_MOTION_DDOT":"0.0000000000000","PERIOD":"95.592","RCS_SIZE":"LARGE","NORAD_CAT_ID":"48408","REV_AT_EPOCH":"364","SITE":"AFETR","CENTER_NAME":"EARTH","OBJECT_ID":"2021-038BH","CLASSIFICATION_TYPE":"U"},{"OBJECT_TYPE":"PAYLOAD","DECAY_DATE":null,"OBJECT_NAME":"STARLINK-2596","TLE_LINE2":"2 48409  53.0535 197.2163 0001991  63.6934  37.5231 15.06423899  3650","LAUNCH_DATE":"2021-05-04","ELEMENT_SET_NO":"999","TLE_LINE1":"1 48409U 21038BJ  21243.91668981 -.00051507  00000-0 -34617-2 0  9992","EPOCH":"2021-08-31T22:00:01.999584","PERIAPSIS":"545.761","EPHEMERIS_TYPE":"0","RA_OF_ASC_NODE":"197.2163","MEAN_ANOMALY":"37.5231","MEAN_MOTION_DOT":"-0.00051507","COUNTRY_CODE":"US","FILE":"3106454","MEAN_ELEMENT_THEORY":"SGP4","ARG_OF_PERICENTER":"63.6934","REF_FRAME":"TEME","INCLINATION":"53.0535","GP_ID":"183843389","APOAPSIS":"548.519","ECCENTRICITY":"0.00019910","NORAD_CAT_ID":"48409","PERIOD":"95.591","RCS_SIZE":"LARGE","SITE":"AFETR","REV_AT_EPOCH":"365","BSTAR":"-0.00346170000000","TIME_SYSTEM":"UTC","MEAN_MOTION_DDOT":"0.0000000000000","SEMIMAJOR_AXIS":"6925.275","MEAN_MOTION":"15.06423899","CLASSIFICATION_TYPE":"U","CENTER_NAME":"EARTH","OBJECT_ID":"2021-038BJ"},{"BSTAR":"-0.00072328000000","MEAN_MOTION":"15.73341302","SEMIMAJOR_AXIS":"6727.492","MEAN_MOTION_DDOT":"0.0000000000000","TIME_SYSTEM":"UTC","RCS_SIZE":"LARGE","PERIOD":"91.525","NORAD_CAT_ID":"48410","REV_AT_EPOCH":"370","SITE":"AFETR","OBJECT_ID":"2021-038BK","CENTER_NAME":"EARTH","CLASSIFICATION_TYPE":"U","TLE_LINE2":"2 48410  53.0483 172.1019 0003818   8.9951  50.1513 15.73341302  3709","PERIAPSIS":"346.789","EPOCH":"2021-08-31T22:00:01.999584","TLE_LINE1":"1 48410U 21038BK  21243.91668981 -.00101595  00000-0 -72328-3 0  9999","LAUNCH_DATE":"2021-05-04","ELEMENT_SET_NO":"999","DECAY_DATE":null,"OBJECT_TYPE":"PAYLOAD","OBJECT_NAME":"STARLINK-2563","INCLINATION":"53.0483","REF_FRAME":"TEME","ARG_OF_PERICENTER":"8.9951","MEAN_ELEMENT_THEORY":"SGP4","ECCENTRICITY":"0.00038180","APOAPSIS":"351.926","GP_ID":"183843431","RA_OF_ASC_NODE":"172.1019","EPHEMERIS_TYPE":"0","FILE":"3106454","COUNTRY_CODE":"US","MEAN_MOTION_DOT":"-0.00101595","MEAN_ANOMALY":"50.1513"},{"OBJECT_NAME":"STARLINK-2505","OBJECT_TYPE":"PAYLOAD","DECAY_DATE":null,"EPOCH":"2021-08-31T22:00:01.999584","PERIAPSIS":"347.160","LAUNCH_DATE":"2021-05-04","ELEMENT_SET_NO":"999","TLE_LINE1":"1 48411U 21038BL  21243.91668981  .00012288  00000-0  91623-4 0  9998","TLE_LINE2":"2 48411  53.0482 172.0977 0003643   8.6108  51.2276 15.73252461  3703","FILE":"3106454","COUNTRY_CODE":"US","MEAN_ANOMALY":"51.2276","MEAN_MOTION_DOT":"0.00012288","RA_OF_ASC_NODE":"172.0977","EPHEMERIS_TYPE":"0","APOAPSIS":"352.062","ECCENTRICITY":"0.00036430","GP_ID":"183843297","REF_FRAME":"TEME","INCLINATION":"53.0482","MEAN_ELEMENT_THEORY":"SGP4","ARG_OF_PERICENTER":"8.6108","SITE":"AFETR","REV_AT_EPOCH":"370","RCS_SIZE":"LARGE","PERIOD":"91.530","NORAD_CAT_ID":"48411","SEMIMAJOR_AXIS":"6727.746","MEAN_MOTION":"15.73252461","TIME_SYSTEM":"UTC","MEAN_MOTION_DDOT":"0.0000000000000","BSTAR":"0.00009162300000","CLASSIFICATION_TYPE":"U","CENTER_NAME":"EARTH","OBJECT_ID":"2021-038BL"},{"OBJECT_ID":"2021-038BM","CENTER_NAME":"EARTH","CLASSIFICATION_TYPE":"U","MEAN_MOTION":"15.73309686","SEMIMAJOR_AXIS":"6727.582","MEAN_MOTION_DDOT":"0.0000000000000","TIME_SYSTEM":"UTC","BSTAR":"-0.00019306000000","SITE":"AFETR","REV_AT_EPOCH":"370","RCS_SIZE":"LARGE","PERIOD":"91.527","NORAD_CAT_ID":"48412","ECCENTRICITY":"0.00038160","APOAPSIS":"352.015","GP_ID":"183843524","INCLINATION":"53.0483","REF_FRAME":"TEME","MEAN_ELEMENT_THEORY":"SGP4","ARG_OF_PERICENTER":"11.4922","COUNTRY_CODE":"US","FILE":"3106454","MEAN_ANOMALY":"48.9083","MEAN_MOTION_DOT":"-0.00027775","RA_OF_ASC_NODE":"172.0997","EPHEMERIS_TYPE":"0","PERIAPSIS":"346.880","EPOCH":"2021-08-31T22:00:01.999584","TLE_LINE1":"1 48412U 21038BM  21243.91668981 -.00027775  00000-0 -19306-3 0  9995","LAUNCH_DATE":"2021-05-04","ELEMENT_SET_NO":"999","TLE_LINE2":"2 48412  53.0483 172.0997 0003816  11.4922  48.9083 15.73309686  3706","OBJECT_NAME":"STARLINK-2581","DECAY_DATE":null,"OBJECT_TYPE":"PAYLOAD"},{"DECAY_DATE":null,"OBJECT_TYPE":"PAYLOAD","OBJECT_NAME":"STARLINK-2461","TLE_LINE2":"2 48428  53.0544  37.2153 0001289 113.6189  87.5884 15.06380408  3591","PERIAPSIS":"546.381","EPOCH":"2021-08-31T22:00:01.999584","TLE_LINE1":"1 48428U 21040A   21243.91668981  .00034497  00000-0  23247-2 0  9990","LAUNCH_DATE":"2021-05-09","ELEMENT_SET_NO":"999","RA_OF_ASC_NODE":"37.2153","EPHEMERIS_TYPE":"0","FILE":"3106454","COUNTRY_CODE":"US","MEAN_ANOMALY":"87.5884","MEAN_MOTION_DOT":"0.00034497","INCLINATION":"53.0544","REF_FRAME":"TEME","ARG_OF_PERICENTER":"113.6189","MEAN_ELEMENT_THEORY":"SGP4","ECCENTRICITY":"0.00012890","APOAPSIS":"548.166","GP_ID":"183843206","PERIOD":"95.593","RCS_SIZE":"LARGE","NORAD_CAT_ID":"48428","SITE":"AFETR","REV_AT_EPOCH":"359","BSTAR":"0.00232470000000","MEAN_MOTION":"15.06380408","SEMIMAJOR_AXIS":"6925.409","MEAN_MOTION_DDOT":"0.0000000000000","TIME_SYSTEM":"UTC","CLASSIFICATION_TYPE":"U","OBJECT_ID":"2021-040A","CENTER_NAME":"EARTH"},{"MEAN_MOTION_DOT":"-0.00870116","MEAN_ANOMALY":"91.2707","FILE":"3106454","COUNTRY_CODE":"US","EPHEMERIS_TYPE":"0","RA_OF_ASC_NODE":"13.4789","GP_ID":"183843391","ECCENTRICITY":"0.00012270","APOAPSIS":"381.930","MEAN_ELEMENT_THEORY":"SGP4","ARG_OF_PERICENTER":"75.4202","INCLINATION":"53.0483","REF_FRAME":"TEME","OBJECT_NAME":"STARLINK-2749","DECAY_DATE":null,"OBJECT_TYPE":"PAYLOAD","TLE_LINE1":"1 48429U 21040B   21243.91668981 -.00870116  00000-0 -10593-1 0  9998","ELEMENT_SET_NO":"999","LAUNCH_DATE":"2021-05-09","PERIAPSIS":"380.271","EPOCH":"2021-08-31T22:00:01.999584","TLE_LINE2":"2 48429  53.0483  13.4789 0001227  75.4202  91.2707 15.62270989  3699","CLASSIFICATION_TYPE":"U","OBJECT_ID":"2021-040B","CENTER_NAME":"EARTH","REV_AT_EPOCH":"369","SITE":"AFETR","NORAD_CAT_ID":"48429","PERIOD":"92.174","RCS_SIZE":"LARGE","MEAN_MOTION_DDOT":"0.0000000000000","TIME_SYSTEM":"UTC","MEAN_MOTION":"15.62270989","SEMIMAJOR_AXIS":"6759.236","BSTAR":"-0.01059300000000"},{"BSTAR":"-0.01037700000000","MEAN_MOTION":"15.62893762","SEMIMAJOR_AXIS":"6757.440","MEAN_MOTION_DDOT":"0.0000000000000","TIME_SYSTEM":"UTC","RCS_SIZE":"LARGE","PERIOD":"92.137","NORAD_CAT_ID":"48430","REV_AT_EPOCH":"376","SITE":"AFETR","OBJECT_ID":"2021-040C","CENTER_NAME":"EARTH","CLASSIFICATION_TYPE":"U","TLE_LINE2":"2 48430  53.0479  13.4972 0003770 355.4063 184.5709 15.62893762  3767","PERIAPSIS":"376.758","EPOCH":"2021-08-31T22:00:01.999584","TLE_LINE1":"1 48430U 21040C   21243.91668981 -.00873968  00000-0 -10377-1 0  9998","LAUNCH_DATE":"2021-05-09","ELEMENT_SET_NO":"999","DECAY_DATE":null,"OBJECT_TYPE":"PAYLOAD","OBJECT_NAME":"STARLINK-2729","INCLINATION":"53.0479","REF_FRAME":"TEME","MEAN_ELEMENT_THEORY":"SGP4","ARG_OF_PERICENTER":"355.4063","ECCENTRICITY":"0.00037700","APOAPSIS":"381.853","GP_ID":"183843433","RA_OF_ASC_NODE":"13.4972","EPHEMERIS_TYPE":"0","COUNTRY_CODE":"US","FILE":"3106454","MEAN_MOTION_DOT":"-0.00873968","MEAN_ANOMALY":"184.5709"}];
